norad_id,name,regime,epoch,line1,line2,inclination,eccentricity,mean_motion,raan,arg_pericenter,mean_anomaly
43231,O3B FM15,MEO,25281.43060182,1 43231U 18024A   25281.43060182 -.00000015  00000-0  00000-0 0  8435,2 43231   0.0482 354.9698 0002904 198.4370 166.5917  5.00115341138434,0.0482,0.0002904,5.00115341,354.9698,198.437,166.5917
43231,O3B FM15,MEO,25281.63049225,1 43231U 18024A   25281.63049225 -.00000016  00000-0  00000-0 0  8444,2 43231   0.0482 354.9247 0002904 198.6914 166.3823  5.00115351138446,0.0482,0.0002904,5.00115351,354.9247,198.6914,166.3823
43231,O3B FM15,MEO,25282.62994459,1 43231U 18024A   25282.62994459 -.00000017  00000-0  00000+0 0  7519,2 43231   0.0481 355.0979 0002903 199.5668 165.3327  5.00115375138493,0.0481,0.0002903,5.00115375,355.0979,199.5668,165.3327
43231,O3B FM15,MEO,25282.62994460,1 43231U 18024A   25282.62994460 -.00000017  00000-0  00000-0 0  8467,2 43231   0.0481 355.0979 0002903 199.5668 165.3327  5.00115375138493,0.0481,0.0002903,5.00115375,355.0979,199.5668,165.3327
43231,O3B FM15,MEO,25282.62994470,1 43231U 18024A   25282.62994470 -.00000017  00000-0  00000+0 0  7501,2 43231   0.0481 355.0306 0002903 199.6424 165.3244  5.00115367138497,0.0481,0.0002903,5.00115367,355.0306,199.6424,165.3244
43231,O3B FM15,MEO,25283.02972583,1 43231U 18024A   25283.02972583 -.00000018  00000-0  00000+0 0  7520,2 43231   0.0481 355.0698 0002903 199.9144 165.0130  5.00115361138511,0.0481,0.0002903,5.00115361,355.0698,199.9144,165.013
43231,O3B FM15,MEO,25283.02972584,1 43231U 18024A   25283.02972584 -.00000018  00000-0  00000-0 0  8488,2 43231   0.0481 355.0698 0002903 199.9144 165.0130  5.00115361138511,0.0481,0.0002903,5.00115361,355.0698,199.9144,165.013
43231,O3B FM15,MEO,25283.22961664,1 43231U 18024A   25283.22961664 -.00000019  00000-0  00000+0 0  7532,2 43231   0.0481 355.1619 0002902 200.2275 164.6073  5.00115333138526,0.0481,0.0002902,5.00115333,355.1619,200.2275,164.6073
43231,O3B FM15,MEO,25283.62939763,1 43231U 18024A   25283.62939763 -.00000020  00000-0  00000-0 0  8513,2 43231   0.0481 355.1349 0002903 200.6391 164.2224  5.00115337138540,0.0481,0.0002903,5.00115337,355.1349,200.6391,164.2224
43231,O3B FM15,MEO,25283.82928794,1 43231U 18024A   25283.82928794 -.00000020  00000-0  00000+0 0  7559,2 43231   0.0481 355.2427 0002902 200.6110 164.1425  5.00115355138559,0.0481,0.0002902,5.00115355,355.2427,200.611,164.1425
43231,O3B FM15,MEO,25284.02917838,1 43231U 18024A   25284.02917838 -.00000021  00000-0  00000-0 0  8530,2 43231   0.0481 355.2607 0002902 200.7316 164.0036  5.00115363138565,0.0481,0.0002902,5.00115363,355.2607,200.7316,164.0036
43231,O3B FM15,MEO,25284.82874054,1 43231U 18024A   25284.82874054 -.00000023  00000-0  00000-0 0  8554,2 43231   0.0481 355.2898 0002901 201.3365 163.3688  5.00115356138597,0.0481,0.0002901,5.00115356,355.2898,201.3365,163.3688
43231,O3B FM15,MEO,25285.22852155,1 43231U 18024A   25285.22852155 -.00000024  00000-0  00000-0 0  8570,2 43231   0.0480 355.3280 0002901 201.6812 162.9854  5.00115357138616,0.048,0.0002901,5.00115357,355.328,201.6812,162.9854
43231,O3B FM15,MEO,25285.22852159,1 43231U 18024A   25285.22852159 -.00000024  00000-0  00000-0 0  8585,2 43231   0.0480 355.3911 0002901 201.7249 162.8786  5.00115352138621,0.048,0.0002901,5.00115352,355.3911,201.7249,162.8786
43231,O3B FM15,MEO,25285.82819304,1 43231U 18024A   25285.82819304 -.00000026  00000-0  00000-0 0  8601,2 43231   0.0480 355.3511 0002901 202.4727 162.1700  5.00115358138643,0.048,0.0002901,5.00115358,355.3511,202.4727,162.17
43231,O3B FM15,MEO,25286.22797422,1 43231U 18024A   25286.22797422 -.00000027  00000-0  00000-0 0  8636,2 43231   0.0480 355.3975 0002901 202.9731 161.6227  5.00115345138663,0.048,0.0002901,5.00115345,355.3975,202.9731,161.6227
43231,O3B FM15,MEO,25286.42786468,1 43231U 18024A   25286.42786468 -.00000027  00000-0  00000-0 0  8658,2 43231   0.0480 355.4166 0002901 203.0488 161.5277  5.00115353138671,0.048,0.0002901,5.00115353,355.4166,203.0488,161.5277
43231,O3B FM15,MEO,25286.82764551,1 43231U 18024A   25286.82764551 -.00000028  00000-0  00000-0 0  8674,2 43231   0.0480 355.4652 0002901 203.4228 161.1047  5.00115373138692,0.048,0.0002901,5.00115373,355.4652,203.4228,161.1047
43231,O3B FM15,MEO,25287.22742643,1 43231U 18024A   25287.22742643 -.00000028  00000-0  00000-0 0  8699,2 43231   0.0480 355.5068 0002901 203.7898 160.6957  5.00115388138713,0.048,0.0002901,5.00115388,355.5068,203.7898,160.6957
43231,O3B FM15,MEO,25287.62720752,1 43231U 18024A   25287.62720752 -.00000029  00000-0  00000-0 0  8725,2 43231   0.0479 355.5441 0002901 204.1877 160.2602  5.00115390138736,0.0479,0.0002901,5.0011539,355.5441,204.1877,160.2602
43231,O3B FM15,MEO,25288.42676972,1 43231U 18024A   25288.42676972 -.00000029  00000-0  00000-0 0  8762,2 43231   0.0479 355.6920 0002900 204.7641 159.5354  5.00115406138781,0.0479,0.00029,5.00115406,355.692,204.7641,159.5354
43231,O3B FM15,MEO,25288.62666022,1 43231U 18024A   25288.62666022 -.00000029  00000-0  00000+0 0  7699,2 43231   0.0479 355.6748 0002899 204.9267 159.3898  5.00115416138795,0.0479,0.0002899,5.00115416,355.6748,204.9267,159.3898
43231,O3B FM15,MEO,25288.82655080,1 43231U 18024A   25288.82655080 -.00000029  00000-0  00000-0 0  8785,2 43231   0.0479 355.6344 0002899 205.1185 159.2384  5.00115418138790,0.0479,0.0002899,5.00115418,355.6344,205.1185,159.2384
43231,O3B FM15,MEO,25288.82655103,1 43231U 18024A   25288.82655103 -.00000029  00000-0  00000+0 0  7701,2 43231   0.0479 355.6988 0002900 205.2227 159.0697  5.00115395138806,0.0479,0.00029,5.00115395,355.6988,205.2227,159.0697
43231,O3B FM15,MEO,25289.22633213,1 43231U 18024A   25289.22633213 -.00000029  00000-0  00000-0 0  8807,2 43231   0.0478 355.6574 0002898 205.5909 158.7429  5.00115408138817,0.0478,0.0002898,5.00115408,355.6574,205.5909,158.7429
43231,O3B FM15,MEO,25289.82600401,1 43231U 18024A   25289.82600401 -.00000029  00000-0  00000-0 0  8828,2 43231   0.0478 355.7090 0002898 206.1647 158.1173  5.00115407138849,0.0478,0.0002898,5.00115407,355.709,206.1647,158.1173
43231,O3B FM15,MEO,25290.02589464,1 43231U 18024A   25290.02589464 -.00000029  00000-0  00000+0 0  7713,2 43231   0.0478 355.7267 0002896 206.1280 158.1363  5.00115413138855,0.0478,0.0002896,5.00115413,355.7267,206.128,158.1363
43231,O3B FM15,MEO,25290.22578524,1 43231U 18024A   25290.22578524 -.00000028  00000-0  00000-0 0  8856,2 43231   0.0478 355.7413 0002896 206.3155 157.9343  5.00115417138861,0.0478,0.0002896,5.00115417,355.7413,206.3155,157.9343
43231,O3B FM15,MEO,25290.62556659,1 43231U 18024A   25290.62556659 -.00000028  00000-0  00000+0 0  7729,2 43231   0.0478 355.7814 0002895 206.6512 157.5585  5.00115414138888,0.0478,0.0002895,5.00115414,355.7814,206.6512,157.5585
43231,O3B FM15,MEO,25290.82545702,1 43231U 18024A   25290.82545702 -.00000028  00000-0  00000-0 0  8887,2 43231   0.0478 355.8031 0002895 206.8581 157.3298  5.00115431138897,0.0478,0.0002895,5.00115431,355.8031,206.8581,157.3298
43231,O3B FM15,MEO,25291.02534772,1 43231U 18024A   25291.02534772 -.00000028  00000-0  00000+0 0  7737,2 43231   0.0478 355.8153 0002895 207.0316 157.1441  5.00115427138906,0.0478,0.0002895,5.00115427,355.8153,207.0316,157.1441
43231,O3B FM15,MEO,25291.22523839,1 43231U 18024A   25291.22523839 -.00000027  00000-0  00000-0 0  8912,2 43231   0.0477 355.8263 0002895 207.1657 156.9990  5.00115428138914,0.0477,0.0002895,5.00115428,355.8263,207.1657,156.999
43231,O3B FM15,MEO,25291.62501972,1 43231U 18024A   25291.62501972 -.00000027  00000-0  00000-0 0  8932,2 43231   0.0477 355.9104 0002895 207.5728 156.5078  5.00115427138947,0.0477,0.0002895,5.00115427,355.9104,207.5728,156.5078
43231,O3B FM15,MEO,25292.22469140,1 43231U 18024A   25292.22469140 -.00000026  00000-0  00000-0 0  8972,2 43231   0.0477 355.8774 0002895 208.0870 156.0267  5.00115453138969,0.0477,0.0002895,5.00115453,355.8774,208.087,156.0267
43231,O3B FM15,MEO,25292.82436313,1 43231U 18024A   25292.82436313 -.00000025  00000-0  00000-0 0  9020,2 43231   0.0476 355.9341 0002896 208.7479 155.3093  5.00115470139006,0.0476,0.0002896,5.0011547,355.9341,208.7479,155.3093
43231,O3B FM15,MEO,25293.02425378,1 43231U 18024A   25293.02425378 -.00000025  00000-0  00000+0 0  7793,2 43231   0.0476 355.8750 0002895 208.9419 155.1744  5.00115469139003,0.0476,0.0002895,5.00115469,355.875,208.9419,155.1744
43231,O3B FM15,MEO,25293.02425382,1 43231U 18024A   25293.02425382 -.00000025  00000-0  00000-0 0  9049,2 43231   0.0476 355.9361 0002896 208.9382 155.1169  5.00115467139012,0.0476,0.0002896,5.00115467,355.9361,208.9382,155.1169
43231,O3B FM15,MEO,25293.42403505,1 43231U 18024A   25293.42403505 -.00000024  00000-0  00000-0 0  9078,2 43231   0.0476 355.9630 0002895 209.2081 154.8203  5.00115475139036,0.0476,0.0002895,5.00115475,355.963,209.2081,154.8203
43231,O3B FM15,MEO,25293.82381627,1 43231U 18024A   25293.82381627 -.00000024  00000-0  00000-0 0  9094,2 43231   0.0476 355.9324 0002895 209.6005 154.4584  5.00115480139041,0.0476,0.0002895,5.0011548,355.9324,209.6005,154.4584
43231,O3B FM15,MEO,25294.22359751,1 43231U 18024A   25294.22359751 -.00000023  00000-0  00000-0 0  9125,2 43231   0.0476 355.9540 0002895 209.9377 154.0997  5.00115484139066,0.0476,0.0002895,5.00115484,355.954,209.9377,154.0997
43231,O3B FM15,MEO,25294.62337889,1 43231U 18024A   25294.62337889 -.00000023  00000-0  00000-0 0  9149,2 43231   0.0476 356.0407 0002896 210.3186 153.6321  5.00115473139092,0.0476,0.0002896,5.00115473,356.0407,210.3186,153.6321
43231,O3B FM15,MEO,25295.02315999,1 43231U 18024A   25295.02315999 -.00000023  00000-0  00000-0 0  9164,2 43231   0.0475 356.0446 0002895 210.6857 153.2611  5.00115486139116,0.0475,0.0002895,5.00115486,356.0446,210.6857,153.2611
43231,O3B FM15,MEO,25295.02316000,1 43231U 18024A   25295.02316000 -.00000023  00000-0  00000+0 0  7851,2 43231   0.0475 355.9846 0002894 210.7035 153.3034  5.00115485139104,0.0475,0.0002894,5.00115485,355.9846,210.7035,153.3034
